{
  "type": "FeatureCollection",
  "features": [
    {
      "type": "Feature",
      "properties": {
        "name": "الجوين",
        "name_ar": "الجوين",
        "name_en": "Al Juwain",
        "name_en_alt": "Al-Juwain",
        "village": "Al-Juwain",
        "place": "village",
        "wof:placetype": "locality",
        "geonames:id": 13157454,
        "wof:id": 13157454,
        "postal_code": "87631",
        "addr:postcode": "87631",
        "is_in": "Harub, Jazan, Saudi Arabia",
        "is_in:municipality": "محافظة هروب",
        "is_in:province": "Jazan",
        "is_in:country": "Saudi Arabia",
        "country": "SA",
        "country_code": "SA",
        "source": "Geonames.org ID 13157454 - Official field survey 2026",
        "description": "Official verified boundary of Al-Juwain village, Harub Governorate, Jazan Region, Saudi Arabia 87631 - Geonames 13157454"
      },
      "geometry": {
        "type": "Polygon",
        "coordinates": [
          [
            [42.886141, 17.5497904],
            [42.881095, 17.5594051],
            [42.8761495, 17.5684487],
            [42.8674651, 17.5730524],
            [42.8580951, 17.5679987],
            [42.8513403, 17.5503395],
            [42.8497576, 17.5501764],
            [42.8416947, 17.5447568],
            [42.8350758, 17.5436121],
            [42.833425, 17.5433327],
            [42.8321881, 17.5427913],
            [42.8311212, 17.5417375],
            [42.8303205, 17.5410459],
            [42.8288867, 17.540745],
            [42.8290749, 17.5394841],
            [42.8269412, 17.5383896],
            [42.8211309, 17.536366],
            [42.8169496, 17.5337323],
            [42.8125742, 17.5310988],
            [42.8205125, 17.5187652],
            [42.8292272, 17.5051353],
            [42.8445898, 17.5096126],
            [42.8515137, 17.5026794],
            [42.8632706, 17.4857967],
            [42.8707894, 17.490869],
            [42.8720927, 17.4915626],
            [42.8744403, 17.4934777],
            [42.8824317, 17.4997719],
            [42.8846476, 17.5029892],
            [42.8838509, 17.5105906],
            [42.8895282, 17.5161279],
            [42.8968401, 17.5220332],
            [42.9013726, 17.5301125],
            [42.8939381, 17.5350722],
            [42.8893712, 17.5420289],
            [42.8877482, 17.5460596],
            [42.886141, 17.5497904]
          ]
        ]
      }
    }
  ]
}
