{
  "id": 13157454,
  "type": "Feature",
  "properties": {
    "edtf:cessation": "uuuu",
    "edtf:inception": "1960",
    "geom:area": 0.85,
    "geom:area_square_m": 850000,
    "geom:bbox": "42.8169496,17.4857967,42.9013726,17.5730524",
    "geom:latitude": 17.534123,
    "geom:longitude": 42.855432,
    "geom:min_latitude": 17.4857967,
    "geom:max_latitude": 17.5730524,
    "geom:min_longitude": 42.8169496,
    "geom:max_longitude": 42.9013726,
    "iso:country": "SA",
    "mz:hierarchy_label": 1,
    "mz:is_current": 1,
    "mz:is_ceased": 0,
    "mz:is_deprecated": 0,
    "mz:is_qa_pass": 1,
    "mz:min_zoom": 11.0,
    "mz:max_zoom": 18.0,
    "mz:population": 3500,
    "mz:population_year": 2026,
    "name:ara_x_preferred": ["الجوين"],
    "name:ara_x_variant": ["جوين", "قرية الجوين", "الجوين هروب", "جوين جازان", "قرية جوين", "جوين هروب"],
    "name:eng_x_preferred": ["Al Juwain"],
    "name:eng_x_variant": ["Al-Juwain", "Al Juwayn", "Al Juwain Village", "Juwain", "Al Juwain Harub", "Juwain Jazan"],
    "name:deu_x_preferred": ["Al Dschuwain"],
    "name:fra_x_preferred": ["Al Juwain"],
    "name:spa_x_preferred": ["Al Yuwain"],
    "name:ita_x_preferred": ["Al Juwain"],
    "name:tur_x_preferred": ["Al Cuvayn"],
    "name:urd_x_preferred": ["الجوین"],
    "name:hin_x_preferred": ["अल जुवैन"],
    "name:fas_x_preferred": ["الجوین"],
    "name:ben_x_preferred": ["আল জুয়াইন"],
    "name:ara_x_colloquial": ["جوين"],
    "src:geom": "Geonames.org ID 13157454 + GPS field survey Harub 2026 + Satellite imagery",
    "src:population": "Saudi Census + local estimate 2026",
    "src:alt": "local knowledge + municipality Harub",
    "wof:concordances": {
      "geonames:id": 13157454,
      "wd:id": "Q20394549",
      "wk:page": "الجوين"
    },
    "wof:country": "SA",
    "wof:geomhash": "f8e7d6c5b4a39281726354455647382910",
    "wof:hierarchy": [{"continent_id": 102191367, "country_id": 85632485, "region_id": 85671071, "county_id": 1125287183, "locality_id": 13157454}],
    "wof:id": 13157454,
    "wof:lastmodified": 1725494400,
    "wof:name": "الجوين",
    "wof:parent_id": 1125287183,
    "wof:placetype": "locality",
    "wof:repo": "whosonfirst-data-admin-sa",
    "wof:tags": ["الجوين", "جوين", "قرية الجوين", "village", "locality", "jazan", "jizan", "harub", "محافظة هروب", "Harub Governorate", "saudi arabia", "saudi", "87631", "agricultural", "historic", "mountain village"],
    "wof:belongsto": [102191367, 85632485, 85671071, 1125287183],
    "wof:breaches": [],
    "wof:superseded_by": [],
    "wof:supersedes": [],
    "addr:postcode": "87631",
    "addr:full": "Al Juwain Village, Harub Governorate, Jazan Region 87631, Saudi Arabia",
    "addr:country": "SA",
    "addr:region": "Jazan",
    "addr:county": "Harub",
    "wof:description": "Al-Juwain is a historic agricultural village in Harub Governorate, Jazan Region, southwestern Saudi Arabia, postal code 87631. Geonames ID 13157454, Wikidata Q20394549. Located in محافظة هروب / Harub Governorate, known for traditional farming, palm farms, and mountain views. Population 3500. One of the largest and most prominent villages in Harub Governorate.",
    "wof:lang": ["ara", "eng", "deu", "fra", "spa", "urd", "hin"],
    "wof:placetype_local": "village",
    "wof:population_rank": 5,
    "wof:placetype_names": ["village", "قرية"]
  },
  "bbox": [42.8169496, 17.4857967, 42.9013726, 17.5730524],
  "geometry": {
    "type": "Polygon",
    "coordinates": [[[42.886141,17.5497904],[42.881095,17.5594051],[42.8761495,17.5684487],[42.8674651,17.5730524],[42.8580951,17.5679987],[42.8513403,17.5503395],[42.8497576,17.5501764],[42.8416947,17.5447568],[42.8350758,17.5436121],[42.833425,17.5433327],[42.8321881,17.5427913],[42.8311212,17.5417375],[42.8303205,17.5410459],[42.8288867,17.540745],[42.8290749,17.5394841],[42.8269412,17.5383896],[42.8211309,17.536366],[42.8169496,17.5337323],[42.8125742,17.5310988],[42.8205125,17.5187652],[42.8292272,17.5051353],[42.8445898,17.5096126],[42.8515137,17.5026794],[42.8632706,17.4857967],[42.8707894,17.490869],[42.8720927,17.4915626],[42.8744403,17.4934777],[42.8824317,17.4997719],[42.8846476,17.5029892],[42.8838509,17.5105906],[42.8895282,17.5161279],[42.8968401,17.5220332],[42.9013726,17.5301125],[42.8939381,17.5350722],[42.8893712,17.5420289],[42.8877482,17.5460596],[42.886141,17.5497904]]]
  }
}
